# From MPEC 2022-K19
P/2016 R4 (Gibbs),e,10.8769,168.2617,174.1365,5.332931,0.0800304,0.47612135,193.0930,03/03.0/2023,2000,g 12.5,4.0
# From MPC105543
P/2016 S1 (PANSTARRS),e,94.7325,227.6576,273.2489,8.275306,0.0414026,0.71046972,90.1360,03/03.0/2023,2000,g 12.0,4.0
# From MPC106345
P/2016 WM48 (Lemmon),e,117.5921,59.9373,36.1471,8.169897,0.0422065,0.78349320,92.7888,03/03.0/2023,2000,g 15.0,4.0
# From MPEC 2021-P47
C/2016 X1 (Lemmon),e,26.4599,256.3367,224.4832,1398,0.0000189,0.99459386,0.0000,04/27.9600/2019,2000,g  6.0,4.0
# From MPC114598
C/2017 AB5 (PANSTARRS),e,32.4674,42.5939,78.2819,2853,0.0000065,0.99677393,0.0000,02/14.7138/2018,2000,g  5.5,4.0
# From MPEC 2022-OB6
C/2017 B3 (LINEAR),h,02/01.2919/2019,54.1604,2.1764,284.8333,1.000166,3.930117,2000,6.0,4.0
# From MPC103847
P/2017 B4 (PANSTARRS),e,20.0584,121.4578,11.0197,4.410520,0.1064068,0.36495152,359.9130,01/05.0/2017,2000,g 14.5,4.0
# From MPEC 2022-OB6
P/2017 D1 (Fuls),e,20.7682,82.1911,7.9541,4.827470,0.0929233,0.43706050,227.0780,03/03.0/2023,2000,g 14.0,4.0
# From MPEC 2022-OB6
P/2017 D4 (PANSTARRS),e,10.5513,264.9468,212.1191,7.547797,0.0475307,0.62911207,112.6263,03/03.0/2023,2000,g 13.0,4.0
# From MPC104794
P/2017 G1 (PANSTARRS),e,4.7849,249.6818,224.3399,7.274690,0.0502322,0.65387133,125.5990,03/03.0/2023,2000,g 13.5,4.0
# From MPC108595
P/2017 G2 (PANSTARRS),e,47.9621,79.8500,105.3902,8.049898,0.0431537,0.64757516,90.3175,03/03.0/2023,2000,g 13.0,4.0
# From MPC115882
C/2017 K1 (PANSTARRS),h,03/17.6286/2018,154.0221,225.7395,4.3980,1.003284,7.280572,2000,7.0,4.0
# From MPEC 2023-D72
C/2017 K2 (PANSTARRS),h,12/19.6888/2022,87.5634,88.2360,236.2016,1.000782,1.796895,2000,1.5,4.0
# From MPEC 2021-N06
P/2017 K3 (Gasparovic),e,4.2735,354.3000,253.4061,5.584993,0.0746741,0.57904310,157.2220,03/03.0/2023,2000,g 14.5,4.0
# From MPEC 2021-P47
C/2017 K5 (PANSTARRS),h,03/27.3412/2020,82.2573,102.3928,172.0688,1.005080,7.684291,2000,5.0,4.0
# From MPEC 2022-OB6
C/2017 M4 (ATLAS),h,01/17.9733/2019,105.6365,65.9783,167.5965,1.001187,3.250836,2000,6.0,4.0
# From MPC118841
C/2017 M5 (TOTAS),h,06/03.9836/2018,15.8605,216.2884,92.8783,1.004872,6.006871,2000,6.5,4.0
# From MPC114599
P/2017 P1 (PANSTARRS),e,7.6890,221.3599,122.7670,7.914812,0.0442632,0.31074627,75.8672,03/03.0/2023,2000,g 10.0,4.0
# From MPC114599
C/2017 S3 (PANSTARRS),h,08/16.8161/2018,99.1863,171.2707,255.7893,1.000094,0.204545,2000,12.9,4.0
# From MPC109591
C/2017 S6 (Catalina),h,02/26.3204/2018,152.8623,131.1589,135.0729,1.001042,1.552556,2000,12.5,4.0
# From MPEC 2022-OB6
P/2017 S8 (PANSTARRS),e,29.8486,191.5189,254.8623,2.778256,0.2128363,0.39083755,35.9231,03/03.0/2023,2000,g 16.0,4.0
# From MPC114600
C/2017 T1 (Heinze),e,96.9312,102.6295,97.0434,10649,0.0000009,0.99994496,0.0000,02/20.6115/2018,2000,g 14.5,4.0
# From MPEC 2022-YN2
C/2017 T2 (PANSTARRS),e,57.2677,64.4175,92.9136,1560,0.0000160,0.99896600,0.0000,05/04.8361/2020,2000,g  5.0,4.0
# From MPC114600
C/2017 T3 (ATLAS),e,88.2655,230.2370,246.7933,1262,0.0000220,0.99934777,0.0000,07/19.3296/2018,2000,g 10.0,4.0
# From MPC115882
P/2017 TW13 (Lemmon),e,44.8505,322.2478,119.9154,7.135330,0.0517110,0.71034344,88.6859,03/03.0/2023,2000,g 15.0,2.0
# From MPEC 2022-K19
P/2017 U3 (PANSTARRS),e,15.9181,165.1057,296.2563,4.924430,0.0901924,0.09972652,128.1599,03/03.0/2023,2000,g 11.0,4.0
# From MPEC 2023-CD7
C/2017 U4 (PANSTARRS),e,158.2016,245.9078,158.9780,10335,0.0000009,0.99925255,0.0000,09/21.5300/2018,2000,g  7.0,4.0
# From MPEC 2023-A50
C/2017 U7 (PANSTARRS),h,09/15.3681/2019,142.6154,276.2703,326.4322,1.001762,6.428240,2000,8.3,2.0
# From MPC114601
P/2017 W3 (Gibbs),e,18.1685,210.2038,327.8090,7.830503,0.0449800,0.50632678,82.3324,03/03.0/2023,2000,g 10.5,4.0
# From MPEC 2021-R75
C/2017 X1 (PANSTARRS),e,31.3393,251.1594,283.1211,30.99798,0.0057109,0.84957323,9.8404,03/03.0/2023,2000,g 10.0,4.0
# From MPEC 2022-QD9
C/2017 Y2 (PANSTARRS),h,11/05.1055/2020,128.4380,66.0138,147.9349,1.001466,4.632475,2000,15.0,4.0
# From MPC111770
P/2017 Y3 (Leonard),e,27.5671,153.8630,67.5699,9.819607,0.0320304,0.86941969,59.2135,03/03.0/2023,2000,g 16.5,4.0
# From MPEC 2021-P47
C/2018 A3 (ATLAS),e,139.5388,194.2941,86.3531,363.8790,0.0001420,0.99098857,0.0000,01/10.7618/2019,2000,g  8.5,4.0
# From MPC114601
C/2018 A4 (PANSTARRS),e,3.1508,97.5774,355.9554,12.18475,0.0231728,0.80391282,40.5155,03/03.0/2023,2000,g 14.0,4.0
# From MPC109147
P/2018 A5 (PANSTARRS),e,23.6119,87.7904,359.4869,5.628150,0.0738169,0.52349234,146.5684,03/03.0/2023,2000,g 15.0,4.0
# From MPEC 2022-ST7
C/2018 A6 (Gibbs),e,77.0636,340.3846,264.3484,15.04633,0.0168872,0.79941859,22.4690,03/03.0/2023,2000,g  9.0,4.0
# From MPEC 2022-O08
C/2018 B1 (Lemmon),e,162.4190,133.1915,68.4093,3518,0.0000047,0.99854097,0.0000,03/27.1316/2018,2000,g  9.0,4.0
# From MPC114601
P/2018 C1 (Lemmon-Read),e,5.1111,270.3296,235.6945,5.652308,0.0733441,0.53205231,134.4884,03/03.0/2023,2000,g 13.5,4.0
# From MPC114601
C/2018 C2 (Lemmon),e,34.4633,91.2668,133.9931,21652,0.0000003,0.99990945,0.0000,05/31.1593/2018,2000,g 13.0,4.0
# From MPEC 2022-M88
C/2018 DO4 (Lemmon),e,160.4425,251.4363,176.3075,25.34155,0.0077260,0.90475409,9.9985,03/03.0/2023,2000,g 11.0,4.0
# From MPC114602
C/2018 E1 (ATLAS),e,72.4996,146.8261,299.2818,53.87021,0.0024928,0.95003793,4.4365,03/03.0/2023,2000,g 10.5,4.0
# From MPC114602
C/2018 EN4 (NEOWISE),e,81.9472,136.1293,35.0173,17.90750,0.0130062,0.91841255,22.5656,03/03.0/2023,2000,g 15.0,4.0
# From MPEC 2023-CD7
C/2018 EF9 (Lemmon),e,84.6294,172.5622,72.6353,448.7938,0.0001037,0.99651904,0.0000,05/21.0299/2018,2000,g 18.0,2.0
# From MPEC 2021-R75
C/2018 F1 (Grauer),e,46.0817,177.2769,71.5822,238.8897,0.0002669,0.98745392,0.0000,12/11.8294/2018,2000,g 11.5,4.0
# From MPEC 2023-A50
C/2018 F4 (PANSTARRS),e,78.0839,26.5155,263.2185,7622,0.0000015,0.99954820,0.0000,12/03.0567/2019,2000,g 11.0,6.0
# From MPEC 2021-Y10
C/2018 F4-A,e,78.0841,26.5157,263.2152,6822,0.0000017,0.99949523,0.0000,12/03.0449/2019,2000,g 11.0,6.0
# From MPEC 2023-D41
C/2018 F4-B,e,78.0850,26.5152,263.2010,8278,0.0000013,0.99958402,0.0000,12/02.9817/2019,2000,g 11.0,6.0
# From MPC114602
P/2018 H2 (PANSTARRS),e,7.4297,67.7885,120.0961,4.383913,0.1073770,0.54230952,201.0829,03/03.0/2023,2000,g 16.6,2.0
# From MPC114602
C/2018 K1 (Weiland),e,164.1868,260.1949,325.2511,30.22448,0.0059315,0.93779062,10.6171,03/03.0/2023,2000,g 14.9,4.0
# From MPEC 2021-R75
C/2018 KJ3 (Lemmon),e,136.6697,91.6568,217.6608,938.9897,0.0000343,0.99613790,0.0000,09/09.9769/2019,2000,g 12.2,2.0
# From MPC114602
P/2018 L1 (PANSTARRS),e,10.5787,268.6111,18.0367,3.654005,0.1411076,0.48173715,221.8951,03/03.0/2023,2000,g 15.0,4.0
# From MPEC 2021-P47
C/2018 L2 (ATLAS),e,67.2507,242.9990,56.3306,256.5127,0.0002399,0.99330824,0.0000,12/02.0994/2018,2000,g 10.0,4.0
# From MPC114603
P/2018 L4 (PANSTARRS),e,26.6163,145.1784,140.6153,4.945666,0.0896122,0.65897433,150.2274,03/03.0/2023,2000,g 17.5,4.0
# From MPC119996
P/2018 L5 (Leonard),e,2.2089,219.0384,93.9632,3.629006,0.1425682,0.36418929,251.2603,03/03.0/2023,2000,g 14.5,4.0
# From MPC117070
C/2018 M1 (Catalina),e,37.2779,339.4211,14.2489,21.50874,0.0098806,0.93928552,16.7585,03/03.0/2023,2000,g 15.5,4.0
# From MPEC 2022-M21
C/2018 N1 (NEOWISE),e,159.4069,292.5474,354.7366,512.3999,0.0000850,0.99744614,0.0000,08/02.9715/2018,2000,g 15.5,4.0
# From MPEC 2022-YN2
C/2018 N2 (ASASSN),h,11/11.3986/2019,77.5547,25.2032,24.4911,1.001007,3.128072,2000,6.0,4.0
# From MPC114603
C/2018 O1 (ATLAS),e,153.9968,87.7950,162.7107,28.09032,0.0066202,0.94455360,10.8794,03/03.0/2023,2000,g 17.0,4.0
# From MPEC 2022-M21
P/2018 P3 (PANSTARRS),e,8.9147,59.1596,305.9931,3.003999,0.1893017,0.41712572,303.4529,03/03.0/2023,2000,g 14.5,4.0
# From MPC114603
P/2018 P4 (PANSTARRS),e,23.1076,353.0657,8.4444,6.685370,0.0570185,0.45053514,89.7943,03/03.0/2023,2000,g 12.0,4.0
# From MPEC 2021-P47
C/2018 P5 (PANSTARRS),e,7.2468,216.1953,131.9834,12.84622,0.0214063,0.64288021,31.3362,03/03.0/2023,2000,g 11.0,4.0
# From MPC118841
C/2018 R3 (Lemmon),e,69.7120,324.5803,112.7421,1574,0.0000158,0.99918458,0.0000,06/07.8246/2019,2000,g  9.5,4.0
# From MPEC 2022-M21
C/2018 R4 (Fuls),e,11.6667,298.5535,345.3117,343.8716,0.0001546,0.99498574,0.0000,03/02.4185/2018,2000,g 14.0,4.0
# From MPC114603
C/2018 R5 (Lemmon),e,103.7465,171.1212,178.2141,22.90536,0.0089908,0.84139645,13.6001,03/03.0/2023,2000,g 11.5,4.0
# From MPEC 2022-QC6
C/2018 S2 (TESS),e,64.1498,85.0976,290.8196,14.36127,0.0181098,0.61878168,28.5643,03/03.0/2023,2000,g  7.5,4.0
# From MPEC 2023-D54
C/2018 S3 (TESS),h,06/29.2124/2016,78.2977,25.0451,263.9485,1.002435,8.012133,2000,6.0,4.0
# From MPEC 2023-D72
C/2018 U1 (Lemmon),h,11/03.1411/2021,108.3171,75.4922,180.4741,1.001520,4.992832,2000,5.0,4.0
# From MPC114604
C/2018 V1 (Machholz-Fujikawa-Iwamoto),h,12/02.8348/2018,144.1014,129.0886,89.1328,1.000361,0.390572,2000,12.0,4.0
# From MPC115884
C/2018 V2 (ATLAS),e,159.1675,357.0817,319.0323,25.07417,0.0078499,0.90086902,12.2351,03/03.0/2023,2000,g 15.0,4.0
# From MPEC 2023-CD7
P/2018 VN2 (Leonard),e,18.2568,226.4459,138.8845,4.062029,0.1203898,0.47869775,208.2012,03/03.0/2023,2000,g 15.0,4.0
# From MPEC 2022-VC5
A/2018 V3,e,164.9621,308.7055,3.6097,127.6512,0.0006834,0.98949931,0.0000,09/09.2624/2019,2000,g 15.7,2.0
# From MPEC 2022-M21
C/2018 V4 (Africano),e,69.0280,78.2764,359.9516,201.9056,0.0003435,0.98417500,0.0000,03/01.5613/2019,2000,g 12.5,4.0
# From MPEC 2021-P47
P/2018 V5 (Trujillo-Sheppard),e,10.5885,171.2859,260.6747,8.961566,0.0367391,0.47560217,59.1904,03/03.0/2023,2000,g 12.5,4.0
# From MPEC 2021-P47
C/2018 W1 (Catalina),e,83.3795,233.6629,251.2062,21.68666,0.0097592,0.93735652,13.5753,03/03.0/2023,2000,g 15.5,2.0
# From MPEC 2021-P47
C/2018 W2 (Africano),h,09/05.3227/2019,116.6243,181.8210,158.0794,1.000600,1.461255,2000,9.5,4.0
# From MPEC 2023-A50
A/2018 W3,e,104.8199,251.6730,313.9657,696.4035,0.0000536,0.99383918,0.0000,04/13.0665/2021,2000,g 10.5,2.0
# From MPC119996
